STARLINK-36066          
1 66592U 25270E   25348.83340278  .00034499  00000+0  83037-3 0  9993
2 66592  42.9996 180.5925 0001511 263.2330 265.1031 15.40664891  4631
STARLINK-36031          
1 66593U 25270F   25348.92331350 -.00154884  00000+0 -27151-2 0  9992
2 66593  42.9991 179.9445 0001831 300.2852  59.7827 15.50283449  4684
STARLINK-36032          
1 66594U 25270G   25348.92292539  .00075918  00000+0  12860-2 0  9997
2 66594  42.9989 179.9413 0001776 277.1804  82.8854 15.50609050  4490
STARLINK-35711          
1 66595U 25270H   25348.92258249  .00029940  00000+0  51398-3 0  9992
2 66595  42.9991 179.9385 0001714 267.3953  92.6711 15.50591358  4795
STARLINK-35811          
1 66596U 25270J   25348.83340278  .00024960  00000+0  60329-3 0  9998
2 66596  42.9995 180.6524 0002119 274.3923 229.0460 15.40675484  4844
STARLINK-35820          
1 66597U 25270K   25348.83340278 -.00645055  00000+0 -16351-1 0  9999
2 66597  42.9993 180.5325 0001829 276.4948 276.5326 15.41099491  4845
STARLINK-35981          
1 66598U 25270L   25348.92155350  .00038611  00000+0  66047-3 0  9996
2 66598  42.9987 179.9298 0001599 275.4160  84.6518 15.50589571  4528
STARLINK-35930          
1 66599U 25270M   25348.92121185  .00029106  00000+0  50002-3 0  9999
2 66599  42.9991 179.9284 0000741 258.8501 101.2276 15.50583822  4688
STARLINK-35980          
1 66600U 25270N   25348.92086483  .00052353  00000+0  89161-3 0  9991
2 66600  42.9988 179.9244 0002920 280.5185  79.5346 15.50596456  4585
STARLINK-35978          
1 66601U 25270P   25348.83340278 -.01984116  00000+0 -45598-1 0  9995
2 66601  42.9991 180.4635 0001117 273.7977 308.2715 15.45278980  4575
STARLINK-36050          
1 66602U 25270Q   25348.83340278  .00027800  00000+0  67072-3 0  9994
2 66602  42.9995 180.6217 0001683 260.4108 255.4492 15.40682441  4633
STARLINK-36048          
1 66603U 25270R   25348.85552625 -.00192289  00000+0 -34237-2 0  9990
2 66603  42.9992 180.2932 0003639 268.8194  91.2249 15.49982090  4572
