CCSDS_OMM_VERS = 2.0
CREATION_DATE  = 
ORIGINATOR     = 

OBJECT_NAME    = STARLINK-36066
OBJECT_ID      = 2025-270E
CENTER_NAME    = EARTH
REF_FRAME      = TEME
TIME_SYSTEM    = UTC
MEAN_ELEMENT_THEORY = SGP/SGP4

EPOCH          = 2025-12-14T20:00:06.000192
MEAN_MOTION    = 15.40664891
ECCENTRICITY   = .0001511
INCLINATION    = 42.9996
RA_OF_ASC_NODE = 180.5925
ARG_OF_PERICENTER = 263.2330
MEAN_ANOMALY   = 265.1031

EPHEMERIS_TYPE = 0
CLASSIFICATION_TYPE = U
NORAD_CAT_ID   = 66592
ELEMENT_SET_NO = 999
REV_AT_EPOCH   = 463
BSTAR          = .83036589E-3
MEAN_MOTION_DOT = .34499E-3
MEAN_MOTION_DDOT = 0

CCSDS_OMM_VERS = 2.0
CREATION_DATE  = 
ORIGINATOR     = 

OBJECT_NAME    = STARLINK-36031
OBJECT_ID      = 2025-270F
CENTER_NAME    = EARTH
REF_FRAME      = TEME
TIME_SYSTEM    = UTC
MEAN_ELEMENT_THEORY = SGP/SGP4

EPOCH          = 2025-12-14T22:09:34.286400
MEAN_MOTION    = 15.50283449
ECCENTRICITY   = .00018317
INCLINATION    = 42.9991
RA_OF_ASC_NODE = 179.9445
ARG_OF_PERICENTER = 300.2852
MEAN_ANOMALY   = 59.7827

EPHEMERIS_TYPE = 0
CLASSIFICATION_TYPE = U
NORAD_CAT_ID   = 66593
ELEMENT_SET_NO = 999
REV_AT_EPOCH   = 468
BSTAR          = -.27150939E-2
MEAN_MOTION_DOT = -.154884E-2
MEAN_MOTION_DDOT = 0

CCSDS_OMM_VERS = 2.0
CREATION_DATE  = 
ORIGINATOR     = 

OBJECT_NAME    = STARLINK-36032
OBJECT_ID      = 2025-270G
CENTER_NAME    = EARTH
REF_FRAME      = TEME
TIME_SYSTEM    = UTC
MEAN_ELEMENT_THEORY = SGP/SGP4

EPOCH          = 2025-12-14T22:09:00.753696
MEAN_MOTION    = 15.50609050
ECCENTRICITY   = .00017763
INCLINATION    = 42.9989
RA_OF_ASC_NODE = 179.9413
ARG_OF_PERICENTER = 277.1804
MEAN_ANOMALY   = 82.8854

EPHEMERIS_TYPE = 0
CLASSIFICATION_TYPE = U
NORAD_CAT_ID   = 66594
ELEMENT_SET_NO = 999
REV_AT_EPOCH   = 449
BSTAR          = .12859855E-2
MEAN_MOTION_DOT = .75918E-3
MEAN_MOTION_DDOT = 0

CCSDS_OMM_VERS = 2.0
CREATION_DATE  = 
ORIGINATOR     = 

OBJECT_NAME    = STARLINK-35711
OBJECT_ID      = 2025-270H
CENTER_NAME    = EARTH
REF_FRAME      = TEME
TIME_SYSTEM    = UTC
MEAN_ELEMENT_THEORY = SGP/SGP4

EPOCH          = 2025-12-14T22:08:31.127136
MEAN_MOTION    = 15.50591358
ECCENTRICITY   = .00017143
INCLINATION    = 42.9991
RA_OF_ASC_NODE = 179.9385
ARG_OF_PERICENTER = 267.3953
MEAN_ANOMALY   = 92.6711

EPHEMERIS_TYPE = 0
CLASSIFICATION_TYPE = U
NORAD_CAT_ID   = 66595
ELEMENT_SET_NO = 999
REV_AT_EPOCH   = 479
BSTAR          = .51398093E-3
MEAN_MOTION_DOT = .2994E-3
MEAN_MOTION_DDOT = 0

CCSDS_OMM_VERS = 2.0
CREATION_DATE  = 
ORIGINATOR     = 

OBJECT_NAME    = STARLINK-35811
OBJECT_ID      = 2025-270J
CENTER_NAME    = EARTH
REF_FRAME      = TEME
TIME_SYSTEM    = UTC
MEAN_ELEMENT_THEORY = SGP/SGP4

EPOCH          = 2025-12-14T20:00:06.000192
MEAN_MOTION    = 15.40675484
ECCENTRICITY   = .00021199
INCLINATION    = 42.9995
RA_OF_ASC_NODE = 180.6524
ARG_OF_PERICENTER = 274.3923
MEAN_ANOMALY   = 229.0460

EPHEMERIS_TYPE = 0
CLASSIFICATION_TYPE = U
NORAD_CAT_ID   = 66596
ELEMENT_SET_NO = 999
REV_AT_EPOCH   = 484
BSTAR          = .60329157E-3
MEAN_MOTION_DOT = .2496E-3
MEAN_MOTION_DDOT = 0

CCSDS_OMM_VERS = 2.0
CREATION_DATE  = 
ORIGINATOR     = 

OBJECT_NAME    = STARLINK-35820
OBJECT_ID      = 2025-270K
CENTER_NAME    = EARTH
REF_FRAME      = TEME
TIME_SYSTEM    = UTC
MEAN_ELEMENT_THEORY = SGP/SGP4

EPOCH          = 2025-12-14T20:00:06.000192
MEAN_MOTION    = 15.41099491
ECCENTRICITY   = .00018297
INCLINATION    = 42.9993
RA_OF_ASC_NODE = 180.5325
ARG_OF_PERICENTER = 276.4948
MEAN_ANOMALY   = 276.5326

EPHEMERIS_TYPE = 0
CLASSIFICATION_TYPE = U
NORAD_CAT_ID   = 66597
ELEMENT_SET_NO = 999
REV_AT_EPOCH   = 484
BSTAR          = -.1635123E-1
MEAN_MOTION_DOT = -.645055E-2
MEAN_MOTION_DDOT = 0

CCSDS_OMM_VERS = 2.0
CREATION_DATE  = 
ORIGINATOR     = 

OBJECT_NAME    = STARLINK-35981
OBJECT_ID      = 2025-270L
CENTER_NAME    = EARTH
REF_FRAME      = TEME
TIME_SYSTEM    = UTC
MEAN_ELEMENT_THEORY = SGP/SGP4

EPOCH          = 2025-12-14T22:07:02.222400
MEAN_MOTION    = 15.50589571
ECCENTRICITY   = .00015998
INCLINATION    = 42.9987
RA_OF_ASC_NODE = 179.9298
ARG_OF_PERICENTER = 275.4160
MEAN_ANOMALY   = 84.6518

EPHEMERIS_TYPE = 0
CLASSIFICATION_TYPE = U
NORAD_CAT_ID   = 66598
ELEMENT_SET_NO = 999
REV_AT_EPOCH   = 452
BSTAR          = .66047405E-3
MEAN_MOTION_DOT = .38611E-3
MEAN_MOTION_DDOT = 0

CCSDS_OMM_VERS = 2.0
CREATION_DATE  = 
ORIGINATOR     = 

OBJECT_NAME    = STARLINK-35930
OBJECT_ID      = 2025-270M
CENTER_NAME    = EARTH
REF_FRAME      = TEME
TIME_SYSTEM    = UTC
MEAN_ELEMENT_THEORY = SGP/SGP4

EPOCH          = 2025-12-14T22:06:32.703840
MEAN_MOTION    = 15.50583822
ECCENTRICITY   = .00007419
INCLINATION    = 42.9991
RA_OF_ASC_NODE = 179.9284
ARG_OF_PERICENTER = 258.8501
MEAN_ANOMALY   = 101.2276

EPHEMERIS_TYPE = 0
CLASSIFICATION_TYPE = U
NORAD_CAT_ID   = 66599
ELEMENT_SET_NO = 999
REV_AT_EPOCH   = 468
BSTAR          = .50001991E-3
MEAN_MOTION_DOT = .29106E-3
MEAN_MOTION_DDOT = 0

CCSDS_OMM_VERS = 2.0
CREATION_DATE  = 
ORIGINATOR     = 

OBJECT_NAME    = STARLINK-35980
OBJECT_ID      = 2025-270N
CENTER_NAME    = EARTH
REF_FRAME      = TEME
TIME_SYSTEM    = UTC
MEAN_ELEMENT_THEORY = SGP/SGP4

EPOCH          = 2025-12-14T22:06:02.721312
MEAN_MOTION    = 15.50596456
ECCENTRICITY   = .00029209
INCLINATION    = 42.9988
RA_OF_ASC_NODE = 179.9244
ARG_OF_PERICENTER = 280.5185
MEAN_ANOMALY   = 79.5346

EPHEMERIS_TYPE = 0
CLASSIFICATION_TYPE = U
NORAD_CAT_ID   = 66600
ELEMENT_SET_NO = 999
REV_AT_EPOCH   = 458
BSTAR          = .89161394E-3
MEAN_MOTION_DOT = .52353E-3
MEAN_MOTION_DDOT = 0

CCSDS_OMM_VERS = 2.0
CREATION_DATE  = 
ORIGINATOR     = 

OBJECT_NAME    = STARLINK-35978
OBJECT_ID      = 2025-270P
CENTER_NAME    = EARTH
REF_FRAME      = TEME
TIME_SYSTEM    = UTC
MEAN_ELEMENT_THEORY = SGP/SGP4

EPOCH          = 2025-12-14T20:00:06.000192
MEAN_MOTION    = 15.45278980
ECCENTRICITY   = .00011172
INCLINATION    = 42.9991
RA_OF_ASC_NODE = 180.4635
ARG_OF_PERICENTER = 273.7977
MEAN_ANOMALY   = 308.2715

EPHEMERIS_TYPE = 0
CLASSIFICATION_TYPE = U
NORAD_CAT_ID   = 66601
ELEMENT_SET_NO = 999
REV_AT_EPOCH   = 457
BSTAR          = -.45597923E-1
MEAN_MOTION_DOT = -.1984116E-1
MEAN_MOTION_DDOT = 0

CCSDS_OMM_VERS = 2.0
CREATION_DATE  = 
ORIGINATOR     = 

OBJECT_NAME    = STARLINK-36050
OBJECT_ID      = 2025-270Q
CENTER_NAME    = EARTH
REF_FRAME      = TEME
TIME_SYSTEM    = UTC
MEAN_ELEMENT_THEORY = SGP/SGP4

EPOCH          = 2025-12-14T20:00:06.000192
MEAN_MOTION    = 15.40682441
ECCENTRICITY   = .00016838
INCLINATION    = 42.9995
RA_OF_ASC_NODE = 180.6217
ARG_OF_PERICENTER = 260.4108
MEAN_ANOMALY   = 255.4492

EPHEMERIS_TYPE = 0
CLASSIFICATION_TYPE = U
NORAD_CAT_ID   = 66602
ELEMENT_SET_NO = 999
REV_AT_EPOCH   = 463
BSTAR          = .67072123E-3
MEAN_MOTION_DOT = .278E-3
MEAN_MOTION_DDOT = 0

CCSDS_OMM_VERS = 2.0
CREATION_DATE  = 
ORIGINATOR     = 

OBJECT_NAME    = STARLINK-36048
OBJECT_ID      = 2025-270R
CENTER_NAME    = EARTH
REF_FRAME      = TEME
TIME_SYSTEM    = UTC
MEAN_ELEMENT_THEORY = SGP/SGP4

EPOCH          = 2025-12-14T20:31:57.468000
MEAN_MOTION    = 15.49982090
ECCENTRICITY   = .00036397
INCLINATION    = 42.9992
RA_OF_ASC_NODE = 180.2932
ARG_OF_PERICENTER = 268.8194
MEAN_ANOMALY   = 91.2249

EPHEMERIS_TYPE = 0
CLASSIFICATION_TYPE = U
NORAD_CAT_ID   = 66603
ELEMENT_SET_NO = 999
REV_AT_EPOCH   = 457
BSTAR          = -.34237355E-2
MEAN_MOTION_DOT = -.192289E-2
MEAN_MOTION_DDOT = 0

